SatCatId,ObjectName,LaunchYear,OrbitalPeriod,LaunchMass,StatusCode,Inclination,Status,UcsData,OrbitClassEstimated,LaunchSiteCountry,Owner,UseType,Purpose,LaunchVehicleClass,TLE1,TLE2,MeanMotion,Eccentricity,OrbitClass
52310,STARLINK-3688,2022,95.44,260.0,+,53.22,Active,1,LEO,USA,USA,Commercial,Communications,Falcon,1 52310U 22041BB  24045.55584751 -.00000589  00000+0 -18895-4 0  9993,2 52310  53.2182 234.6309 0001617 113.0424 247.0739 15.08832941102018,15.08832941,0.0001617,LEO
52311,STARLINK-3750,2022,95.44,260.0,+,53.22,Active,1,LEO,USA,USA,Commercial,Communications,Falcon,1 52311U 22041BC  24045.55215150  .00001284  00000+0  98722-4 0  9996,2 52311  53.2157 234.5762 0001209  81.2703 278.8426 15.08836700102018,15.088367,0.0001209,LEO
52312,STARLINK-3752,2022,95.44,260.0,+,53.22,Active,1,LEO,USA,USA,Commercial,Communications,Falcon,1 52312U 22041BD  24045.24670525  .00001554  00000+0  11569-3 0  9997,2 52312  53.2165 235.8931 0001327  93.4951 266.6193 15.08841573101975,15.08841573,0.0001327,LEO
52313,STARLINK-3749,2022,95.44,260.0,+,53.22,Active,1,LEO,USA,USA,Commercial,Communications,Falcon,1 52313U 22041BE  24045.51535351  .00000251  00000+0  33838-4 0  9992,2 52313  53.2166 234.7400 0001489  80.7276 279.3885 15.08838341102018,15.08838341,0.0001489,LEO
52320,SUPERVIEW NEO-1 01,2022,94.39,540.0,+,97.42,Active,1,LEO,PRC,China,Commercial,Earth Observation,Long March,1 52320U 22043A   24045.56650330  .00021656  00000+0  85330-3 0  9997,2 52320  97.4171 127.2726 0001463 100.6825 259.4578 15.25610084 99994,15.25610084,0.0001463,LEO
52322,SUPERVIEW NEO-1 02,2022,94.39,540.0,+,97.42,Active,1,LEO,PRC,China,Commercial,Earth Observation,Long March,1 52322U 22043C   24045.59794768  .00021461  00000+0  84435-3 0  9995,2 52322  97.4166 127.3666 0001152  86.8557 273.2813 15.25662603100012,15.25662603,0.0001152,LEO
52331,STARLINK-3889,2022,95.44,260.0,+,53.22,Active,1,LEO,USA,USA,Commercial,Communications,Falcon,1 52331U 22045A   24045.57054932  .00001140  00000+0  89675-4 0  9991,2 52331  53.2190 354.4900 0001991  79.7495 280.3721 15.08846751101798,15.08846751,0.0001991,LEO
52332,STARLINK-3831,2022,95.44,260.0,+,53.22,Active,1,LEO,USA,USA,Commercial,Communications,Falcon,1 52332U 22045B   24045.58254904  .00000110  00000+0  24999-4 0  9998,2 52332  53.2189 354.4483 0001408 109.3128 250.8016 15.08842577101790,15.08842577,0.0001408,LEO
52333,STARLINK-3847,2022,95.44,260.0,+,53.22,Active,1,LEO,USA,USA,Commercial,Communications,Falcon,1 52333U 22045C   24045.57790906  .00000699  00000+0  62001-4 0  9993,2 52333  53.2191 354.4610 0001235  95.8754 264.2379 15.08839481101788,15.08839481,0.0001235,LEO
52334,STARLINK-3880,2022,95.44,260.0,+,53.22,Active,1,LEO,USA,USA,Commercial,Communications,Falcon,1 52334U 22045D   24045.56687251  .00001511  00000+0  11300-3 0  9990,2 52334  53.2189 354.5090 0001226 113.7752 246.3369 15.08837787101784,15.08837787,0.0001226,LEO
52335,STARLINK-3814,2022,95.44,260.0,+,53.22,Active,1,LEO,USA,USA,Commercial,Communications,Falcon,1 52335U 22045E   24045.56318424  .00000282  00000+0  35803-4 0  9993,2 52335  53.2184 354.5277 0001190 103.3213 256.7912 15.08850131101792,15.08850131,0.000119,LEO
52336,STARLINK-3823,2022,95.44,260.0,+,53.22,Active,1,LEO,USA,USA,Commercial,Communications,Falcon,1 52336U 22045F   24045.13996139 -.00001385  00000+0 -68921-4 0  9996,2 52336  53.2189 356.2267 0001689  99.7258 260.3925 15.08851898101736,15.08851898,0.0001689,LEO
52337,STARLINK-3797,2022,95.44,260.0,+,53.22,Active,1,LEO,USA,USA,Commercial,Communications,Falcon,1 52337U 22045G   24045.57423590 -.00000944  00000+0 -41210-4 0  9993,2 52337  53.2188 354.4779 0002370  78.9413 281.1846 15.08835903101792,15.08835903,0.000237,LEO
52338,STARLINK-3815,2022,95.18,260.0,P,53.22,Active,1,LEO,USA,USA,Commercial,Communications,Falcon,1 52338U 22045H   24045.54065599 -.00000795  00000+0 -27770-4 0  9991,2 52338  53.2202 337.9448 0001256  87.4770 272.6368 15.12941825102030,15.12941825,0.0001256,LEO
52339,STARLINK-3792,2022,95.44,260.0,+,53.22,Active,1,LEO,USA,USA,Commercial,Communications,Falcon,1 52339U 22045J   24045.58154838  .00000833  00000+0  70435-4 0  9998,2 52339  53.2187 354.0879 0001519  88.8022 271.3144 15.08845631101803,15.08845631,0.0001519,LEO
52340,STARLINK-3818,2022,95.44,260.0,+,53.22,Active,1,LEO,USA,USA,Commercial,Communications,Falcon,1 52340U 22045K   24045.24762555  .00001938  00000+0  13979-3 0  9990,2 52340  53.2180 345.9374 0001314  91.7031 268.4111 15.08850901101877,15.08850901,0.0001314,LEO
52341,STARLINK-3843,2022,95.43,260.0,+,53.22,Active,1,LEO,USA,USA,Commercial,Communications,Falcon,1 52341U 22045L   24045.54846149 -.00001116  00000+0 -52021-4 0  9998,2 52341  53.2195 354.5439 0001339  94.9240 265.1905 15.08845624101798,15.08845624,0.0001339,LEO
52342,STARLINK-3850,2022,95.44,260.0,+,53.22,Active,1,LEO,USA,USA,Commercial,Communications,Falcon,1 52342U 22045M   24045.51628709  .00001807  00000+0  13158-3 0  9998,2 52342  53.2182 344.8503 0001533  74.2763 285.8398 15.08839866101927,15.08839866,0.0001533,LEO
52343,STARLINK-3849,2022,95.44,260.0,+,53.22,Active,1,LEO,USA,USA,Commercial,Communications,Falcon,1 52343U 22045N   24045.58527574  .00006062  00000+0  39863-3 0  9993,2 52343  53.2193 354.4279 0001466  92.9311 267.1849 15.08837812101808,15.08837812,0.0001466,LEO
52344,STARLINK-3851,2022,95.44,260.0,+,53.22,Active,1,LEO,USA,USA,Commercial,Communications,Falcon,1 52344U 22045P   24045.24028027 -.00000942  00000+0 -41114-4 0  9992,2 52344  53.2181 346.0419 0001306  97.0669 263.0471 15.08841739101881,15.08841739,0.0001306,LEO
52345,STARLINK-3852,2022,95.44,260.0,+,53.22,Active,1,LEO,USA,USA,Commercial,Communications,Falcon,1 52345U 22045Q   24045.53196149 -.00000003  00000+0  17884-4 0  9990,2 52345  53.2185 344.8313 0001059  95.4350 264.6763 15.08851460101916,15.0885146,0.0001059,LEO
52346,STARLINK-3812,2022,95.43,260.0,+,53.22,Active,1,LEO,USA,USA,Commercial,Communications,Falcon,1 52346U 22045R   24045.56507092 -.00001838  00000+0 -97378-4 0  9991,2 52346  53.2198 344.5302 0001933  84.5820 275.5393 15.08842633101932,15.08842633,0.0001933,LEO
52347,STARLINK-3826,2022,95.43,260.0,+,53.22,Active,1,LEO,USA,USA,Commercial,Communications,Falcon,1 52347U 22045S   24045.24490736  .00014163  00000+0  90580-3 0  9993,2 52347  53.2184 345.9615 0002115 115.2530 244.8682 15.08853748101886,15.08853748,0.0002115,LEO
52348,STARLINK-3829,2022,95.44,260.0,+,53.22,Active,1,LEO,USA,USA,Commercial,Communications,Falcon,1 52348U 22045T   24045.55674542 -.00000170  00000+0  74162-5 0  9991,2 52348  53.2191 344.5576 0001484  90.7679 269.3483 15.08853496101932,15.08853496,0.0001484,LEO
52349,STARLINK-3819,2022,95.44,260.0,+,53.22,Active,1,LEO,USA,USA,Commercial,Communications,Falcon,1 52349U 22045U   24045.23658609  .00006167  00000+0  40508-3 0  9999,2 52349  53.2169 345.9935 0001675 106.2277 253.8900 15.08855373101883,15.08855373,0.0001675,LEO
52350,STARLINK-3754,2022,95.44,260.0,+,53.22,Active,1,LEO,USA,USA,Commercial,Communications,Falcon,1 52350U 22045V   24045.55308050 -.00000288  00000+0  85400-8 0  9992,2 52350  53.2190 344.5738 0001849  76.9856 283.1343 15.08831031101932,15.08831031,0.0001849,LEO
52352,STARLINK-3838,2022,95.44,260.0,+,53.22,Active,1,LEO,USA,USA,Commercial,Communications,Falcon,1 52352U 22045X   24045.21081469  .00001642  00000+0  12115-3 0  9991,2 52352  53.2183 346.1095 0001246 118.5586 241.5532 15.08861725101889,15.08861725,0.0001246,LEO
52353,STARLINK-3807,2022,95.44,260.0,+,53.22,Active,1,LEO,USA,USA,Commercial,Communications,Falcon,1 52353U 22045Y   24045.54940186 -.00001661  00000+0 -86316-4 0  9996,2 52353  53.2172 344.5930 0001030 108.2550 251.8554 15.08843308101937,15.08843308,0.000103,LEO
52354,STARLINK-3876,2022,95.44,260.0,+,53.22,Active,1,LEO,USA,USA,Commercial,Communications,Falcon,1 52354U 22045Z   24045.53098901  .00001316  00000+0  10078-3 0  9991,2 52354  53.2174 344.6667 0001143 100.6612 259.4509 15.08840371101939,15.08840371,0.0001143,LEO
52355,STARLINK-3877,2022,95.44,260.0,+,53.22,Active,1,LEO,USA,USA,Commercial,Communications,Falcon,1 52355U 22045AA  24045.54572193  .00002009  00000+0  14434-3 0  9993,2 52355  53.2182 344.6070 0002021  89.6689 270.4535 15.08835697101930,15.08835697,0.0002021,LEO
52356,STARLINK-3801,2022,95.44,260.0,+,53.22,Active,1,LEO,USA,USA,Commercial,Communications,Falcon,1 52356U 22045AB  24045.53466786 -.00000281  00000+0  45659-6 0  9990,2 52356  53.2192 344.6817 0001580  66.3660 293.7498 15.08850942101937,15.08850942,0.000158,LEO
52357,STARLINK-3821,2022,95.44,260.0,+,53.22,Active,1,LEO,USA,USA,Commercial,Communications,Falcon,1 52357U 22045AC  24045.53834172  .00006398  00000+0  41952-3 0  9992,2 52357  53.2184 344.6360 0001452  93.4467 266.6691 15.08859287101931,15.08859287,0.0001452,LEO
52358,STARLINK-3837,2022,95.43,260.0,+,53.22,Active,1,LEO,USA,USA,Commercial,Communications,Falcon,1 52358U 22045AD  24045.12250681  .00001640  00000+0  12108-3 0  9991,2 52358  53.2174 346.5055 0001321  93.4539 266.6604 15.08847561101877,15.08847561,0.0001321,LEO
52359,STARLINK-3853,2022,95.44,260.0,+,53.22,Active,1,LEO,USA,USA,Commercial,Communications,Falcon,1 52359U 22045AE  24045.53562586  .00000216  00000+0  31616-4 0  9991,2 52359  53.2178 344.6616 0001089  95.9759 264.1357 15.08850083101934,15.08850083,0.0001089,LEO
52360,STARLINK-3824,2022,95.44,260.0,+,53.22,Active,1,LEO,USA,USA,Commercial,Communications,Falcon,1 52360U 22045AF  24045.51350777 -.00000590  00000+0 -18948-4 0  9998,2 52360  53.2191 334.7462 0001352  93.6991 266.4156 15.08850229102054,15.08850229,0.0001352,LEO
52361,STARLINK-3728,2022,95.44,260.0,+,53.22,Active,1,LEO,USA,USA,Commercial,Communications,Falcon,1 52361U 22045AG  24045.52731204 -.00001969  00000+0 -10564-3 0  9994,2 52361  53.2190 344.6845 0001828  79.3496 280.7701 15.08836959101933,15.08836959,0.0001828,LEO
